[{"OBJECT_NAME":"YAOGAN-30 07C","OBJECT_ID":"2020-021C","EPOCH":"2026-03-09T23:27:46.361088","MEAN_MOTION":15.02093061,"ECCENTRICITY":0.00023968,"INCLINATION":34.9952,"RA_OF_ASC_NODE":93.0026,"ARG_OF_PERICENTER":261.0656,"MEAN_ANOMALY":98.9781,"EPHEMERIS_TYPE":0,"CLASSIFICATION_TYPE":"U","NORAD_CAT_ID":45462,"ELEMENT_SET_NO":999,"REV_AT_EPOCH":32548,"BSTAR":0.00030590838,"MEAN_MOTION_DOT":4.073e-5,"MEAN_MOTION_DDOT":0},{"OBJECT_NAME":"CZ-6A DEB","OBJECT_ID":"2022-151CD","EPOCH":"2026-03-09T04:34:52.178880","MEAN_MOTION":15.04926808,"ECCENTRICITY":0.00436133,"INCLINATION":98.6267,"RA_OF_ASC_NODE":153.8749,"ARG_OF_PERICENTER":159.2339,"MEAN_ANOMALY":201.0669,"EPHEMERIS_TYPE":0,"CLASSIFICATION_TYPE":"U","NORAD_CAT_ID":54334,"ELEMENT_SET_NO":999,"REV_AT_EPOCH":17669,"BSTAR":0.0057373504,"MEAN_MOTION_DOT":0.00083812,"MEAN_MOTION_DDOT":0}]
